{
  "norad_id": 56378,
  "name": "STARLINK-6191",
  "history": [
    {
      "epoch": "2026-03-28T16:56:54.487680",
      "apogee_km": 486.1174534863412,
      "perigee_km": 484.9953768868272,
      "latitude_deg": 35.13958554463156,
      "longitude_deg": -114.40612479997799,
      "semi_major_axis_km": 6863.693415186584,
      "eccentricity": 8.174e-05,
      "inclination_deg": 43.0018,
      "raan_deg": 90.0129,
      "arg_perigee_deg": 273.2853,
      "mean_anomaly_deg": 86.7905,
      "mean_motion_rev_day": 15.26743035
    }
  ]
}